[{"OBJECT_NAME":"STARLINK-36081","OBJECT_ID":"2026-012F","EPOCH":"2026-03-09T01:22:57.161856","MEAN_MOTION":15.27575775,"ECCENTRICITY":0.00013471,"INCLINATION":42.9991,"RA_OF_ASC_NODE":318.1112,"ARG_OF_PERICENTER":275.9114,"MEAN_ANOMALY":84.1584,"EPHEMERIS_TYPE":0,"CLASSIFICATION_TYPE":"U","NORAD_CAT_ID":67498,"ELEMENT_SET_NO":999,"REV_AT_EPOCH":766,"BSTAR":0.001523546,"MEAN_MOTION_DOT":0.00041896,"MEAN_MOTION_DDOT":0},{"OBJECT_NAME":"COSMOS 1758","OBJECT_ID":"1986-046A","EPOCH":"2026-03-09T22:23:33.220896","MEAN_MOTION":15.25706639,"ECCENTRICITY":0.00131526,"INCLINATION":82.4607,"RA_OF_ASC_NODE":143.3203,"ARG_OF_PERICENTER":337.3781,"MEAN_ANOMALY":22.6875,"EPHEMERIS_TYPE":0,"CLASSIFICATION_TYPE":"U","NORAD_CAT_ID":16791,"ELEMENT_SET_NO":999,"REV_AT_EPOCH":16610,"BSTAR":0.00027304427,"MEAN_MOTION_DOT":7.006e-5,"MEAN_MOTION_DDOT":0}]
